IRIDIUM 124             
1 42810U 17039H   26064.19504884  .00000577  00000+0  16555-3 0  9995
2 42810  86.4537 333.8529 0002105  84.2606 275.8835 14.43270273460110
IRIDIUM 128             
1 42811U 17039J   26063.76567849  .00000040  00000+0  73854-5 0  9990
2 42811  86.3909  68.8058 0002057  95.2284 264.9147 14.34217824455016
IRIDIUM 121             
1 42812U 17039K   26063.44512661 -.00000011  00000+0 -10851-4 0  9995
2 42812  86.3962  37.4302 0002101  90.1164 270.0273 14.34217397454811
IRIDIUM 133             
1 42955U 17061A   26064.07646617  .00000021  00000+0  38423-6 0  9993
2 42955  86.3912  68.7911 0002150  90.3047 269.8395 14.34217602439850
IRIDIUM 100             
1 42956U 17061B   26064.07012298  .00000013  00000+0 -24833-5 0  9997
2 42956  86.3909  68.7149 0002038  90.1780 269.9650 14.34217448439850
IRIDIUM 122             
1 42957U 17061C   26064.10817583  .00000070  00000+0  18076-4 0  9995
2 42957  86.3909  68.6987 0002128  88.1335 272.0105 14.34218070439866
IRIDIUM 129             
1 42958U 17061D   26064.27308615  .00000058  00000+0  13663-4 0  9998
2 42958  86.3910  68.6956 0002533  86.5023 273.6462 14.34218165439904
IRIDIUM 119             
1 42959U 17061E   26064.10183634  .00000016  00000+0 -14349-5 0  9991
2 42959  86.3912  68.7626 0002235  85.8828 274.2623 14.34217758439897
IRIDIUM 107             
1 42960U 17061F   26064.26039997  .00000045  00000+0  88391-5 0  9991
2 42960  86.3911  68.7169 0001888  86.3592 273.7820 14.34217983439924
IRIDIUM 132             
1 42961U 17061G   26064.26674226  .00000076  00000+0  19906-4 0  9991
2 42961  86.3911  68.6944 0002115  90.1134 270.0304 14.34218123439928
IRIDIUM 136             
1 42962U 17061H   26064.29845629 -.00000003  00000+0 -81229-5 0  9992
2 42962  86.3910  68.6874 0002040  86.9209 273.2221 14.34217561439943
IRIDIUM 139             
1 42963U 17061J   26064.30479922  .00000013  00000+0 -25739-5 0  9998
2 42963  86.3912  68.7451 0001981  90.9576 269.1846 14.34217592439955
IRIDIUM 125             
1 42964U 17061K   26064.29211306  .00000008  00000+0 -43289-5 0  9991
2 42964  86.3913  68.8095 0001996  75.0221 285.1196 14.34217722439961
IRIDIUM 135             
1 43070U 17083A   26064.19647633  .00000408  00000+0  13864-3 0  9996
2 43070  86.4020   5.4693 0002189  86.4205 273.7241 14.34219102429242
IRIDIUM 138             
1 43071U 17083B   26064.29161111 -.00000017  00000+0 -13125-4 0  9999
2 43071  86.4028   5.1096 0002219  75.4676 284.6766 14.34217419429241
IRIDIUM 116             
1 43072U 17083C   26064.25989763  .00000039  00000+0  69192-5 0  9995
2 43072  86.4021   5.4302 0002061  93.7376 266.4055 14.34217865429270
IRIDIUM 130             
1 43073U 17083D   26064.29795274  .00000103  00000+0  29569-4 0  9997
2 43073  86.4024   5.6791 0001890  88.5083 271.6329 14.34217801429221
