[{"OBJECT_NAME":"IRIDIUM 124","OBJECT_ID":"2017-039H","EPOCH":"2026-03-05T04:40:52.219776","MEAN_MOTION":14.43270273,"ECCENTRICITY":0.00021055,"INCLINATION":86.4537,"RA_OF_ASC_NODE":333.8529,"ARG_OF_PERICENTER":84.2606,"MEAN_ANOMALY":275.8835,"EPHEMERIS_TYPE":0,"CLASSIFICATION_TYPE":"U","NORAD_CAT_ID":42810,"ELEMENT_SET_NO":999,"REV_AT_EPOCH":46011,"BSTAR":0.00016555016,"MEAN_MOTION_DOT":5.77e-6,"MEAN_MOTION_DDOT":0},{"OBJECT_NAME":"IRIDIUM 128","OBJECT_ID":"2017-039J","EPOCH":"2026-03-04T18:22:34.621536","MEAN_MOTION":14.34217824,"ECCENTRICITY":0.00020572,"INCLINATION":86.3909,"RA_OF_ASC_NODE":68.8058,"ARG_OF_PERICENTER":95.2284,"MEAN_ANOMALY":264.9147,"EPHEMERIS_TYPE":0,"CLASSIFICATION_TYPE":"U","NORAD_CAT_ID":42811,"ELEMENT_SET_NO":999,"REV_AT_EPOCH":45501,"BSTAR":7.385444e-6,"MEAN_MOTION_DOT":4.0e-7,"MEAN_MOTION_DDOT":0},{"OBJECT_NAME":"IRIDIUM 121","OBJECT_ID":"2017-039K","EPOCH":"2026-03-04T10:40:58.939104","MEAN_MOTION":14.34217397,"ECCENTRICITY":0.00021013,"INCLINATION":86.3962,"RA_OF_ASC_NODE":37.4302,"ARG_OF_PERICENTER":90.1164,"MEAN_ANOMALY":270.0273,"EPHEMERIS_TYPE":0,"CLASSIFICATION_TYPE":"U","NORAD_CAT_ID":42812,"ELEMENT_SET_NO":999,"REV_AT_EPOCH":45481,"BSTAR":-1.0851029e-5,"MEAN_MOTION_DOT":-1.1e-7,"MEAN_MOTION_DDOT":0},{"OBJECT_NAME":"IRIDIUM 133","OBJECT_ID":"2017-061A","EPOCH":"2026-03-05T01:50:06.677088","MEAN_MOTION":14.34217602,"ECCENTRICITY":0.00021508,"INCLINATION":86.3912,"RA_OF_ASC_NODE":68.7911,"ARG_OF_PERICENTER":90.3047,"MEAN_ANOMALY":269.8395,"EPHEMERIS_TYPE":0,"CLASSIFICATION_TYPE":"U","NORAD_CAT_ID":42955,"ELEMENT_SET_NO":999,"REV_AT_EPOCH":43985,"BSTAR":3.84227e-7,"MEAN_MOTION_DOT":2.1e-7,"MEAN_MOTION_DDOT":0},{"OBJECT_NAME":"IRIDIUM 100","OBJECT_ID":"2017-061B","EPOCH":"2026-03-05T01:40:58.625472","MEAN_MOTION":14.34217448,"ECCENTRICITY":0.00020388,"INCLINATION":86.3909,"RA_OF_ASC_NODE":68.7149,"ARG_OF_PERICENTER":90.178,"MEAN_ANOMALY":269.965,"EPHEMERIS_TYPE":0,"CLASSIFICATION_TYPE":"U","NORAD_CAT_ID":42956,"ELEMENT_SET_NO":999,"REV_AT_EPOCH":43985,"BSTAR":-2.483307e-6,"MEAN_MOTION_DOT":1.3e-7,"MEAN_MOTION_DDOT":0},{"OBJECT_NAME":"IRIDIUM 122","OBJECT_ID":"2017-061C","EPOCH":"2026-03-05T02:35:46.391712","MEAN_MOTION":14.3421807,"ECCENTRICITY":0.00021281,"INCLINATION":86.3909,"RA_OF_ASC_NODE":68.6987,"ARG_OF_PERICENTER":88.1335,"MEAN_ANOMALY":272.0105,"EPHEMERIS_TYPE":0,"CLASSIFICATION_TYPE":"U","NORAD_CAT_ID":42957,"ELEMENT_SET_NO":999,"REV_AT_EPOCH":43986,"BSTAR":1.8075508e-5,"MEAN_MOTION_DOT":7.0e-7,"MEAN_MOTION_DDOT":0},{"OBJECT_NAME":"IRIDIUM 129","OBJECT_ID":"2017-061D","EPOCH":"2026-03-05T06:33:14.643360","MEAN_MOTION":14.34218165,"ECCENTRICITY":0.00025331,"INCLINATION":86.391,"RA_OF_ASC_NODE":68.6956,"ARG_OF_PERICENTER":86.5023,"MEAN_ANOMALY":273.6462,"EPHEMERIS_TYPE":0,"CLASSIFICATION_TYPE":"U","NORAD_CAT_ID":42958,"ELEMENT_SET_NO":999,"REV_AT_EPOCH":43990,"BSTAR":1.3662507e-5,"MEAN_MOTION_DOT":5.8e-7,"MEAN_MOTION_DDOT":0},{"OBJECT_NAME":"IRIDIUM 119","OBJECT_ID":"2017-061E","EPOCH":"2026-03-05T02:26:38.659776","MEAN_MOTION":14.34217758,"ECCENTRICITY":0.00022355,"INCLINATION":86.3912,"RA_OF_ASC_NODE":68.7626,"ARG_OF_PERICENTER":85.8828,"MEAN_ANOMALY":274.2623,"EPHEMERIS_TYPE":0,"CLASSIFICATION_TYPE":"U","NORAD_CAT_ID":42959,"ELEMENT_SET_NO":999,"REV_AT_EPOCH":43989,"BSTAR":-1.434919e-6,"MEAN_MOTION_DOT":1.6e-7,"MEAN_MOTION_DDOT":0},{"OBJECT_NAME":"IRIDIUM 107","OBJECT_ID":"2017-061F","EPOCH":"2026-03-05T06:14:58.557408","MEAN_MOTION":14.34217983,"ECCENTRICITY":0.00018881,"INCLINATION":86.3911,"RA_OF_ASC_NODE":68.7169,"ARG_OF_PERICENTER":86.3592,"MEAN_ANOMALY":273.782,"EPHEMERIS_TYPE":0,"CLASSIFICATION_TYPE":"U","NORAD_CAT_ID":42960,"ELEMENT_SET_NO":999,"REV_AT_EPOCH":43992,"BSTAR":8.839071e-6,"MEAN_MOTION_DOT":4.5e-7,"MEAN_MOTION_DDOT":0},{"OBJECT_NAME":"IRIDIUM 132","OBJECT_ID":"2017-061G","EPOCH":"2026-03-05T06:24:06.531264","MEAN_MOTION":14.34218123,"ECCENTRICITY":0.00021152,"INCLINATION":86.3911,"RA_OF_ASC_NODE":68.6944,"ARG_OF_PERICENTER":90.1134,"MEAN_ANOMALY":270.0304,"EPHEMERIS_TYPE":0,"CLASSIFICATION_TYPE":"U","NORAD_CAT_ID":42961,"ELEMENT_SET_NO":999,"REV_AT_EPOCH":43992,"BSTAR":1.9905644e-5,"MEAN_MOTION_DOT":7.6e-7,"MEAN_MOTION_DDOT":0},{"OBJECT_NAME":"IRIDIUM 136","OBJECT_ID":"2017-061H","EPOCH":"2026-03-05T07:09:46.623456","MEAN_MOTION":14.34217561,"ECCENTRICITY":0.00020403,"INCLINATION":86.391,"RA_OF_ASC_NODE":68.6874,"ARG_OF_PERICENTER":86.9209,"MEAN_ANOMALY":273.2221,"EPHEMERIS_TYPE":0,"CLASSIFICATION_TYPE":"U","NORAD_CAT_ID":42962,"ELEMENT_SET_NO":999,"REV_AT_EPOCH":43994,"BSTAR":-8.122879e-6,"MEAN_MOTION_DOT":-3.0e-8,"MEAN_MOTION_DDOT":0},{"OBJECT_NAME":"IRIDIUM 139","OBJECT_ID":"2017-061J","EPOCH":"2026-03-05T07:18:54.652608","MEAN_MOTION":14.34217592,"ECCENTRICITY":0.0001981,"INCLINATION":86.3912,"RA_OF_ASC_NODE":68.7451,"ARG_OF_PERICENTER":90.9576,"MEAN_ANOMALY":269.1846,"EPHEMERIS_TYPE":0,"CLASSIFICATION_TYPE":"U","NORAD_CAT_ID":42963,"ELEMENT_SET_NO":999,"REV_AT_EPOCH":43995,"BSTAR":-2.573948e-6,"MEAN_MOTION_DOT":1.3e-7,"MEAN_MOTION_DDOT":0},{"OBJECT_NAME":"IRIDIUM 125","OBJECT_ID":"2017-061K","EPOCH":"2026-03-05T07:00:38.568384","MEAN_MOTION":14.34217722,"ECCENTRICITY":0.00019966,"INCLINATION":86.3913,"RA_OF_ASC_NODE":68.8095,"ARG_OF_PERICENTER":75.0221,"MEAN_ANOMALY":285.1196,"EPHEMERIS_TYPE":0,"CLASSIFICATION_TYPE":"U","NORAD_CAT_ID":42964,"ELEMENT_SET_NO":999,"REV_AT_EPOCH":43996,"BSTAR":-4.328924e-6,"MEAN_MOTION_DOT":8.0e-8,"MEAN_MOTION_DDOT":0},{"OBJECT_NAME":"IRIDIUM 135","OBJECT_ID":"2017-083A","EPOCH":"2026-03-05T04:42:55.554912","MEAN_MOTION":14.34219102,"ECCENTRICITY":0.00021898,"INCLINATION":86.402,"RA_OF_ASC_NODE":5.4693,"ARG_OF_PERICENTER":86.4205,"MEAN_ANOMALY":273.7241,"EPHEMERIS_TYPE":0,"CLASSIFICATION_TYPE":"U","NORAD_CAT_ID":43070,"ELEMENT_SET_NO":999,"REV_AT_EPOCH":42924,"BSTAR":0.00013864022,"MEAN_MOTION_DOT":4.08e-6,"MEAN_MOTION_DDOT":0},{"OBJECT_NAME":"IRIDIUM 138","OBJECT_ID":"2017-083B","EPOCH":"2026-03-05T06:59:55.199904","MEAN_MOTION":14.34217419,"ECCENTRICITY":0.00022192,"INCLINATION":86.4028,"RA_OF_ASC_NODE":5.1096,"ARG_OF_PERICENTER":75.4676,"MEAN_ANOMALY":284.6766,"EPHEMERIS_TYPE":0,"CLASSIFICATION_TYPE":"U","NORAD_CAT_ID":43071,"ELEMENT_SET_NO":999,"REV_AT_EPOCH":42924,"BSTAR":-1.3125291e-5,"MEAN_MOTION_DOT":-1.7e-7,"MEAN_MOTION_DDOT":0},{"OBJECT_NAME":"IRIDIUM 116","OBJECT_ID":"2017-083C","EPOCH":"2026-03-05T06:14:15.155232","MEAN_MOTION":14.34217865,"ECCENTRICITY":0.0002061,"INCLINATION":86.4021,"RA_OF_ASC_NODE":5.4302,"ARG_OF_PERICENTER":93.7376,"MEAN_ANOMALY":266.4055,"EPHEMERIS_TYPE":0,"CLASSIFICATION_TYPE":"U","NORAD_CAT_ID":43072,"ELEMENT_SET_NO":999,"REV_AT_EPOCH":42927,"BSTAR":6.919192e-6,"MEAN_MOTION_DOT":3.9e-7,"MEAN_MOTION_DDOT":0},{"OBJECT_NAME":"IRIDIUM 130","OBJECT_ID":"2017-083D","EPOCH":"2026-03-05T07:09:03.116736","MEAN_MOTION":14.34217801,"ECCENTRICITY":0.00018907,"INCLINATION":86.4024,"RA_OF_ASC_NODE":5.6791,"ARG_OF_PERICENTER":88.5083,"MEAN_ANOMALY":271.6329,"EPHEMERIS_TYPE":0,"CLASSIFICATION_TYPE":"U","NORAD_CAT_ID":43073,"ELEMENT_SET_NO":999,"REV_AT_EPOCH":42922,"BSTAR":2.9569089e-5,"MEAN_MOTION_DOT":1.03e-6,"MEAN_MOTION_DDOT":0}]
